LYNK TOWER 4            
1 55034U 23001AB  26068.67743801  .00009160  00000+0  30014-3 0  9997
2 55034  97.3324 128.5940 0010321 112.3386 247.8950 15.31819885176588
STARLINK-34582          
1 64781U 25147AC  26068.74858824  .00023987  00000+0  81938-3 0  9993
2 64781  53.1591 242.2635 0000920  68.7864 291.3235 15.30200104 38693
